H1 CPF 01  gfz 2021 06 08 00  6591 tandemx   
H2 1003001  6202 36605    2021 06 08 00 59 42 2021 06 13 00 00 42   120 1 1  0 0 0
H9
10 0 59376  59022.000000  0   -4143624.782  -2578205.519   4851900.088
10 0 59376  59142.000000  0   -4755783.682  -2706738.375   4175106.938
10 0 59376  59262.000000  0   -5286560.807  -2777955.615   3424813.576
10 0 59376  59382.000000  0   -5725654.855  -2792114.875   2614212.530
10 0 59376  59502.000000  0   -6064390.244  -2750642.854   1757571.532
10 0 59376  59622.000000  0   -6295896.757  -2656083.456    869978.000
10 0 59376  59742.000000  0   -6415253.112  -2512020.432    -32934.296
10 0 59376  59862.000000  0   -6419592.965  -2322978.659   -935268.440
10 0 59376  59982.000000  0   -6308169.219  -2094305.680  -1821154.512
10 0 59376  60102.000000  0   -6082373.761  -1832037.165  -2675036.945
10 0 59376  60222.000000  0   -5745714.966  -1542749.988  -3481953.095
10 0 59376  60342.000000  0   -5303753.624  -1233406.757  -4227797.987
10 0 59376  60462.000000  0   -4763999.698   -911195.880  -4899569.857
10 0 59376  60582.000000  0   -4135772.787   -583370.571  -5485592.529
10 0 59376  60702.000000  0   -3430029.622   -257091.186  -5975710.127
10 0 59376  60822.000000  0   -2659164.419     60725.914  -6361451.855
10 0 59376  60942.000000  0   -1836786.770    363549.461  -6636166.351
10 0 59376  61062.000000  0    -977480.180    645361.585  -6795125.254
10 0 59376  61182.000000  0     -96546.674    900772.930  -6835595.243
10 0 59376  61302.000000  0     790258.922   1125122.315  -6756878.865
10 0 59376  61422.000000  0    1667003.074   1314558.757  -6560327.698
10 0 59376  61542.000000  0    2517854.441   1466107.064  -6249322.528
10 0 59376  61662.000000  0    3327364.945   1577714.285  -5829221.013
10 0 59376  61782.000000  0    4080746.521   1648276.195  -5307273.641
10 0 59376  61902.000000  0    4764141.033   1677644.401  -4692510.768
10 0 59376  62022.000000  0    5364880.068   1666613.706  -3995597.651
10 0 59376  62142.000000  0    5871726.815   1616888.950  -3228658.726
10 0 59376  62262.000000  0    6275095.933   1531032.009  -2405074.729
10 0 59376  62382.000000  0    6567247.439   1412390.280  -1539253.524
10 0 59376  62502.000000  0    6742447.133   1265007.380   -646377.397
10 0 59376  62622.000000  0    6797089.163   1093517.485    257867.402
10 0 59376  62742.000000  0    6729775.663    903027.109   1157572.766
10 0 59376  62862.000000  0    6541355.003    698986.651   2036895.823
10 0 59376  62982.000000  0    6234913.809    487053.848   2880348.284
10 0 59376  63102.000000  0    5815722.593    272953.990   3673076.977
10 0 59376  63222.000000  0    5291137.975     62339.973   4401131.978
10 0 59376  63342.000000  0    4670464.558   -139342.542   5051714.165
10 0 59376  63462.000000  0    3964780.255   -326984.615   5613401.881
10 0 59376  63582.000000  0    3186727.424   -495933.052   6076348.027
10 0 59376  63702.000000  0    2350278.551   -642095.861   6432447.488
10 0 59376  63822.000000  0    1470480.056   -762033.841   6675473.337
10 0 59376  63942.000000  0     563177.598   -853036.072   6801181.114
10 0 59376  64062.000000  0    -355271.794   -913177.625   6807377.484
10 0 59376  64182.000000  0   -1268294.167   -941358.976   6693954.988
10 0 59376  64302.000000  0   -2159396.432   -937326.140   6462893.195
10 0 59376  64422.000000  0   -3012462.544   -901670.958   6118226.072
10 0 59376  64542.000000  0   -3812045.191   -835811.843   5665977.630
10 0 59376  64662.000000  0   -4543649.667   -741956.060   5114063.511
10 0 59376  64782.000000  0   -5194003.394   -623043.630   4472158.225
10 0 59376  64902.000000  0   -5751304.780   -482673.516   3751529.534
10 0 59376  65022.000000  0   -6205445.943   -325013.729   2964842.986
10 0 59376  65142.000000  0   -6548205.835   -154697.172   2125940.821
10 0 59376  65262.000000  0   -6773409.767     23294.929   1249595.843
10 0 59376  65382.000000  0   -6877048.518    203758.065    351244.996
10 0 59376  65502.000000  0   -6857354.157    381395.462   -553290.880
10 0 59376  65622.000000  0   -6714830.137    550952.069  -1448095.087
10 0 59376  65742.000000  0   -6452234.902    707347.241  -2317443.020
10 0 59376  65862.000000  0   -6074523.122    845803.170  -3146084.718
10 0 59376  65982.000000  0   -5588741.928    961966.263  -3919519.091
10 0 59376  66102.000000  0   -5003885.448   1052017.682  -4624247.980
10 0 59376  66222.000000  0   -4330715.267   1112770.672  -5248008.175
10 0 59376  66342.000000  0   -3581550.642   1141752.593  -5779977.224
10 0 59376  66462.000000  0   -2770034.482   1137269.907  -6210951.172
10 0 59376  66582.000000  0   -1910880.000   1098454.907  -6533492.168
10 0 59376  66702.000000  0   -1019602.415   1025295.325  -6742045.636
10 0 59376  66822.000000  0    -112241.236    918644.550  -6833024.589
10 0 59376  66942.000000  0     794921.125    780213.375  -6804863.876
10 0 59376  67062.000000  0    1685643.867    612543.108  -6658046.705
10 0 59376  67182.000000  0    2544013.096    418960.087  -6395097.516
10 0 59376  67302.000000  0    3354720.528    203512.924  -6020543.198
10 0 59376  67422.000000  0    4103333.304    -29107.477  -5540842.496
10 0 59376  67542.000000  0    4776549.711   -273663.964  -4964285.365
10 0 59376  67662.000000  0    5362440.263   -524483.168  -4300862.210
10 0 59376  67782.000000  0    5850667.058   -775578.508  -3562100.733
10 0 59376  67902.000000  0    6232676.357  -1020783.507  -2760874.246
10 0 59376  68022.000000  0    6501860.762  -1253893.121  -1911183.057
10 0 59376  68142.000000  0    6653686.355  -1468809.230  -1027911.349
10 0 59376  68262.000000  0    6685780.034  -1659686.825   -126564.315
10 0 59376  68382.000000  0    6597975.269  -1821077.499    777009.040
10 0 59376  68502.000000  0    6392313.375  -1948066.387   1666902.939
10 0 59376  68622.000000  0    6072999.855  -2036399.011   2527443.582
10 0 59376  68742.000000  0    5646317.219  -2082594.314   3343474.598
10 0 59376  68862.000000  0    5120495.310  -2084040.773   4100631.080
10 0 59376  68982.000000  0    4505544.274  -2039073.846   4785596.022
10 0 59376  69102.000000  0    3813056.284  -1947032.160   5386335.714
10 0 59376  69222.000000  0    3055978.156  -1808292.659   5892311.295
10 0 59376  69342.000000  0    2248360.288  -1624282.882   6294659.151
10 0 59376  69462.000000  0    1405090.367  -1397471.142   6586340.359
10 0 59376  69582.000000  0     541614.830  -1131334.659   6762258.241
10 0 59376  69702.000000  0    -326346.191   -830305.521   6819341.718
10 0 59376  69822.000000  0   -1183084.635   -499696.278   6756594.399
10 0 59376  69942.000000  0   -2013187.384   -145606.427   6575110.671
10 0 59376  70062.000000  0   -2801812.285    225189.648   6278058.006
10 0 59376  70182.000000  0   -3534953.705    605371.199   5870626.052
10 0 59376  70302.000000  0   -4199694.165    987213.808   5359942.047
10 0 59376  70422.000000  0   -4784437.409   1362744.191   4754952.125
10 0 59376  70542.000000  0   -5279118.056   1723905.108   4066269.994
10 0 59376  70662.000000  0   -5675383.150   2062726.115   3305993.859
10 0 59376  70782.000000  0   -5966741.344   2371496.761   2487495.557
10 0 59376  70902.000000  0   -6148677.494   2642938.395   1625184.651
10 0 59376  71022.000000  0   -6218729.342   2870370.728    734250.294
10 0 59376  71142.000000  0   -6176521.894   3047868.166   -169614.128
10 0 59376  71262.000000  0   -6023759.645   3170401.939  -1070495.877
10 0 59376  71382.000000  0   -5764176.964   3233963.997  -1952551.941
10 0 59376  71502.000000  0   -5403447.600   3235670.566  -2800296.668
10 0 59376  71622.000000  0   -4949054.735   3173841.369  -3598879.728
10 0 59376  71742.000000  0   -4410127.280   3048053.698  -4334348.637
10 0 59376  71862.000000  0   -3797246.852   2859170.264  -4993890.282
10 0 59376  71982.000000  0   -3122231.227   2609340.587  -5566047.908
10 0 59376  72102.000000  0   -2397900.888   2301977.387  -6040910.286
10 0 59376  72222.000000  0   -1637831.871   1941708.535  -6410273.840
10 0 59376  72342.000000  0    -856099.687   1534304.650  -6667771.987
10 0 59376  72462.000000  0     -67021.814   1086585.665  -6808973.778
10 0 59376  72582.000000  0     715098.719    606307.369  -6831451.261
10 0 59376  72702.000000  0    1476226.070    102030.006  -6734818.595
10 0 59376  72822.000000  0    2202838.710   -417031.254  -6520737.439
10 0 59376  72942.000000  0    2882163.732   -941170.067  -6192891.242
10 0 59376  73062.000000  0    3502398.642  -1460365.603  -5756928.603
10 0 59376  73182.000000  0    4052915.395  -1964468.877  -5220376.037
10 0 59376  73302.000000  0    4524446.290  -2443398.792  -4592519.975
10 0 59376  73422.000000  0    4909245.528  -2887342.623  -3884256.544
10 0 59376  73542.000000  0    5201223.920  -3286956.556  -3107912.354
10 0 59376  73662.000000  0    5396054.811  -3633562.708  -2277037.126
10 0 59376  73782.000000  0    5491246.714  -3919337.859  -1406170.101
10 0 59376  73902.000000  0    5486180.275  -4137489.429   -510585.388
10 0 59376  74022.000000  0    5382108.474  -4282414.046    393979.887
10 0 59376  74142.000000  0    5182118.969  -4349834.609   1291609.415
10 0 59376  74262.000000  0    4891057.887  -4336910.918   2166496.902
10 0 59376  74382.000000  0    4515418.379  -4242320.265   3003233.411
10 0 59376  74502.000000  0    4063197.048  -4066307.082   3787085.802
10 0 59376  74622.000000  0    3543721.954  -3810701.549   4504261.972
10 0 59376  74742.000000  0    2967454.964  -3478904.992   5142156.913
10 0 59376  74862.000000  0    2345776.072  -3075842.979   5689573.545
10 0 59376  74982.000000  0    1690753.912  -2607888.399   6136917.066
10 0 59376  75102.000000  0    1014907.021  -2082756.042   6476357.478
10 0 59376  75222.000000  0     330962.256  -1509371.895   6701960.512
10 0 59376  75342.000000  0    -348385.749   -897718.912   6809785.553
10 0 59376  75462.000000  0   -1010709.488   -258661.506   6797949.832
99
